$$SOE
2459580.500000000, A.D. 2022-Jan-01 00:00:00.0000, 4.554468870792657E+07, -2.792452102150787E+08, 2.282493999522611E+06,
2459587.500000000, A.D. 2022-Jan-08 00:00:00.0000, 5.902851218108660E+07, -2.754022474968218E+08, 9.509272301113755E+05,
2459594.500000000, A.D. 2022-Jan-15 00:00:00.0000, 7.238410023354299E+07, -2.709611151637487E+08, -3.826999457489997E+05,
2459601.500000000, A.D. 2022-Jan-22 00:00:00.0000, 8.558043844493137E+07, -2.659239074983486E+08, -1.715480853416771E+06,
2459608.500000000, A.D. 2022-Jan-29 00:00:00.0000, 9.858627394581990E+07, -2.602947583697372E+08, -3.044439285091460E+06,
2459615.500000000, A.D. 2022-Feb-05 00:00:00.0000, 1.113702835233006E+08, -2.540799003573217E+08, -4.366543688909009E+06,
2459622.500000000, A.D. 2022-Feb-12 00:00:00.0000, 1.239012537887638E+08, -2.472877072439361E+08, -5.678722965549573E+06,
2459629.500000000, A.D. 2022-Feb-19 00:00:00.0000, 1.361482698915806E+08, -2.399287157508142E+08, -6.977883395905197E+06,
2459636.500000000, A.D. 2022-Feb-26 00:00:00.0000, 1.480809089423538E+08, -2.320156257941473E+08, -8.260926439495012E+06,
2459643.500000000, A.D. 2022-Mar-05 00:00:00.0000, 1.596694355010491E+08, -2.235632788212210E+08, -9.524767235095441E+06,
2459650.500000000, A.D. 2022-Mar-12 00:00:00.0000, 1.708849963380195E+08, -2.145886136789570E+08, -1.076635356606656E+07,
2459657.500000000, A.D. 2022-Mar-19 00:00:00.0000, 1.816998113963273E+08, -2.051105998666613E+08, -1.198268500815316E+07,
2459664.500000000, A.D. 2022-Mar-26 00:00:00.0000, 1.920873577959165E+08, -1.951501485782330E+08, -1.317083196064629E+07,
2459671.500000000, A.D. 2022-Apr-02 00:00:00.0000, 2.020225438251778E+08, -1.847300025118548E+08, -1.432795426375949E+07,
2459678.500000000, A.D. 2022-Apr-09 00:00:00.0000, 2.114818702385856E+08, -1.738746058759617E+08, -1.545131912145796E+07,
2459685.500000000, A.D. 2022-Apr-16 00:00:00.0000, 2.204435765332210E+08, -1.626099558614132E+08, -1.653831801577773E+07,
2459692.500000000, A.D. 2022-Apr-23 00:00:00.0000, 2.288877685947159E+08, -1.509634368556262E+08, -1.758648213681415E+07,
2459699.500000000, A.D. 2022-Apr-30 00:00:00.0000, 2.367965239123514E+08, -1.389636423511153E+08, -1.859349610071183E+07,
2459706.500000000, A.D. 2022-May-07 00:00:00.0000, 2.441539759722631E+08, -1.266401894852620E+08, -1.955721019585922E+07,
2459713.500000000, A.D. 2022-May-14 00:00:00.0000, 2.509463782883224E+08, -1.140235263091796E+08, -2.047565087774269E+07,
2459720.500000000, A.D. 2022-May-21 00:00:00.0000, 2.571621456447860E+08, -1.011447342416768E+08, -2.134702915307389E+07,
2459727.500000000, A.D. 2022-May-28 00:00:00.0000, 2.627918721964872E+08, -8.803532985710771E+07, -2.216974682567764E+07,
2459734.500000000, A.D. 2022-Jun-04 00:00:00.0000, 2.678283273143594E+08, -7.472706938754849E+07, -2.294240064101627E+07,
2459741.500000000, A.D. 2022-Jun-11 00:00:00.0000, 2.722664303695976E+08, -6.125175879054455E+07, -2.366378437275125E+07,
2459748.500000000, A.D. 2022-Jun-18 00:00:00.0000, 2.761032059320676E+08, -4.764107192734419E+07, -2.433288892486420E+07,
2459755.500000000, A.D. 2022-Jun-25 00:00:00.0000, 2.793377211905491E+08, -3.392637909516875E+07, -2.494890056425411E+07,
2459762.500000000, A.D. 2022-Jul-02 00:00:00.0000, 2.819710077810398E+08, -2.013858782417710E+07, -2.551119744629416E+07,
2459769.500000000, A.D. 2022-Jul-09 00:00:00.0000, 2.840059706379740E+08, -6.307997231891166E+06, -2.601934462658368E+07,
2459776.500000000, A.D. 2022-Jul-16 00:00:00.0000, 2.854472861193095E+08, 7.535834074543159E+06, -2.647308765353917E+07,
2459783.500000000, A.D. 2022-Jul-23 00:00:00.0000, 2.863012895406227E+08, 2.136420594145107E+07, -2.687234473280761E+07,
2459790.500000000, A.D. 2022-Jul-30 00:00:00.0000, 2.865758544820097E+08, 3.514937677587751E+07, -2.721719794912999E+07,
2459797.500000000, A.D. 2022-Aug-06 00:00:00.0000, 2.862802696247837E+08, 4.886464648188946E+07, -2.750788402254269E+07,
2459804.500000000, A.D. 2022-Aug-13 00:00:00.0000, 2.854251143145512E+08, 6.248442530293967E+07, -2.774478449083854E+07,
2459811.500000000, A.D. 2022-Aug-20 00:00:00.0000, 2.840221331343650E+08, 7.598428863912690E+07, -2.792841539856618E+07,
2459818.500000000, A.D. 2022-Aug-27 00:00:00.0000, 2.820841112102993E+08, 8.934101788753785E+07, -2.805941672813500E+07,
2459825.500000000, A.D. 2022-Sep-03 00:00:00.0000, 2.796247519367799E+08, 1.025326281284802E+08, -2.813854175896370E+07,
2459832.500000000, A.D. 2022-Sep-10 00:00:00.0000, 2.766585584318986E+08, 1.155383837302249E+08, -2.816664649793508E+07,
2459839.500000000, A.D. 2022-Sep-17 00:00:00.0000, 2.732007197559695E+08, 1.283388029941442E+08, -2.814467930309458E+07,
2459846.500000000, A.D. 2022-Sep-24 00:00:00.0000, 2.692670027505429E+08, 1.409156529517359E+08, -2.807367081149691E+07,
2459853.500000000, A.D. 2022-Oct-01 00:00:00.0000, 2.648736503421946E+08, 1.532519354599494E+08, -2.795472427899781E+07,
2459860.500000000, A.D. 2022-Oct-08 00:00:00.0000, 2.600372871442320E+08, 1.653318662601669E+08, -2.778900639387759E+07,
2459867.500000000, A.D. 2022-Oct-15 00:00:00.0000, 2.547748316785968E+08, 1.771408492972121E+08, -2.757773842987777E+07,
2459874.500000000, A.D. 2022-Oct-22 00:00:00.0000, 2.491034131513664E+08, 1.886654456675755E+08, -2.732218770981737E+07,
2459881.500000000, A.D. 2022-Oct-29 00:00:00.0000, 2.430402952929295E+08, 1.998933355849603E+08, -2.702365984486421E+07,
2459888.500000000, A.D. 2022-Nov-05 00:00:00.0000, 2.366028092600210E+08, 2.108132769923808E+08, -2.668349172886109E+07,
2459895.500000000, A.D. 2022-Nov-12 00:00:00.0000, 2.298082934378853E+08, 2.214150629004515E+08, -2.630304500330009E+07,
2459902.500000000, A.D. 2022-Nov-19 00:00:00.0000, 2.226740391658872E+08, 2.316894772352768E+08, -2.588369999808328E+07,
2459909.500000000, A.D. 2022-Nov-26 00:00:00.0000, 2.152172423472048E+08, 2.416282494563150E+08, -2.542685019318693E+07,
2459916.500000000, A.D. 2022-Dec-03 00:00:00.0000, 2.074549607756026E+08, 2.512240085098925E+08, -2.493389720185336E+07,
2459923.500000000, A.D. 2022-Dec-10 00:00:00.0000, 1.994040768707542E+08, 2.604702366347558E+08, -2.440624625835076E+07,
2459930.500000000, A.D. 2022-Dec-17 00:00:00.0000, 1.910812654791077E+08, 2.693612234164801E+08, -2.384530219115844E+07,
2459937.500000000, A.D. 2022-Dec-24 00:00:00.0000, 1.825029664746732E+08, 2.778920203773745E+08, -2.325246587045713E+07,
2459944.500000000, A.D. 2022-Dec-31 00:00:00.0000, 1.736853621423666E+08, 2.860583965009290E+08, -2.262913112565881E+07,
2459951.500000000, A.D. 2023-Jan-07 00:00:00.0000, 1.646443590999028E+08, 2.938567958889530E+08, -2.197668203695652E+07,
2459958.500000000, A.D. 2023-Jan-14 00:00:00.0000, 1.553955724322451E+08, 3.012842982266782E+08, -2.129649035018969E+07,
2459965.500000000, A.D. 2023-Jan-21 00:00:00.0000, 1.459543110401820E+08, 3.083385790231040E+08, -2.058991318444401E+07,
2459972.500000000, A.D. 2023-Jan-28 00:00:00.0000, 1.363355675457942E+08, 3.150178695479911E+08, -1.985829135782087E+07,
2459979.500000000, A.D. 2023-Feb-04 00:00:00.0000, 1.265540122451221E+08, 3.213209195666620E+08, -1.910294803922628E+07,
2459986.500000000, A.D. 2023-Feb-11 00:00:00.0000, 1.166239890237661E+08, 3.272469627199010E+08, -1.832518755126335E+07,
2459993.500000000, A.D. 2023-Feb-18 00:00:00.0000, 1.065595129037008E+08, 3.327956837475938E+08, -1.752629436123888E+07,
2460000.500000000, A.D. 2023-Feb-25 00:00:00.0000, 9.637426923852448E+07, 3.379671873976256E+08, -1.670753227499576E+07,
2460007.500000000, A.D. 2023-Mar-04 00:00:00.0000, 8.608161443553768E+07, 3.427619690247284E+08, -1.587014382032751E+07,
2460014.500000000, A.D. 2023-Mar-11 00:00:00.0000, 7.569457802998778E+07, 3.471808868495083E+08, -1.501534980276793E+07,
2460021.500000000, A.D. 2023-Mar-18 00:00:00.0000, 6.522586597312937E+07, 3.512251357830314E+08, -1.414434902334197E+07,
2460028.500000000, A.D. 2023-Mar-25 00:00:00.0000, 5.468786516588359E+07, 3.548962227135515E+08, -1.325831816292840E+07,
2460035.500000000, A.D. 2023-Apr-01 00:00:00.0000, 4.409264950292401E+07, 3.581959435896731E+08, -1.235841182357715E+07,
2460042.500000000, A.D. 2023-Apr-08 00:00:00.0000, 3.345198666831194E+07, 3.611263634697725E+08, -1.144576255611570E+07,
2460049.500000000, A.D. 2023-Apr-15 00:00:00.0000, 2.277734322242836E+07, 3.636897983728065E+08, -1.052148073763242E+07,
2460056.500000000, A.D. 2023-Apr-22 00:00:00.0000, 1.207988967690185E+07, 3.658887958146339E+08, -9.586654701992631E+06,
2460063.500000000, A.D. 2023-Apr-29 00:00:00.0000, 1.370508194858893E+06, 3.677261162274501E+08, -8.642351180340856E+06,
2460070.500000000, A.D. 2023-May-06 00:00:00.0000, -9.340198923373774E+06, 3.692047169815925E+08, -7.689615736071065E+06,
2460077.500000000, A.D. 2023-May-13 00:00:00.0000, -2.004190101989032E+07, 3.703277380461388E+08, -6.729473168917626E+06,
2460084.500000000, A.D. 2023-May-20 00:00:00.0000, -3.072453095832050E+07, 3.710984887297738E+08, -5.762927941810668E+06,
2460091.500000000, A.D. 2023-May-27 00:00:00.0000, -4.137827696919116E+07, 3.715204354087505E+08, -4.790964643762961E+06,
2460098.500000000, A.D. 2023-Jun-03 00:00:00.0000, -5.199357445640628E+07, 3.715971902069889E+08, -3.814548485949352E+06,
2460105.500000000, A.D. 2023-Jun-10 00:00:00.0000, -6.256109778654295E+07, 3.713325005561802E+08, -2.834625829022601E+06,
2460112.500000000, A.D. 2023-Jun-17 00:00:00.0000, -7.307175201123649E+07, 3.707302395199183E+08, -1.852124750095800E+06,
2460119.500000000, A.D. 2023-Jun-24 00:00:00.0000, -8.351666423677072E+07, 3.697943968842016E+08, -8.679556700731814E+05,
2460126.500000000, A.D. 2023-Jul-01 00:00:00.0000, -9.388717441774260E+07, 3.685290717928108E+08, 1.169880067279339E+05,
2460133.500000000, A.D. 2023-Jul-08 00:00:00.0000, -1.041748272736915E+08, 3.669384677052012E+08, 1.101829464296222E+06,
2460140.500000000, A.D. 2023-Jul-15 00:00:00.0000, -1.143713666225402E+08, 3.650268868014891E+08, 2.085708146556094E+06,
2460147.500000000, A.D. 2023-Jul-22 00:00:00.0000, -1.244687286273104E+08, 3.627987227510139E+08, 3.067779124553442E+06,
$$EOE